COMMENT,ORIGINATOR,NORAD_CAT_ID,OBJECT_NAME,OBJECT_TYPE,CLASSIFICATION_TYPE,INTLDES,EPOCH,EPOCH_MICROSECONDS,MEAN_MOTION,ECCENTRICITY,INCLINATION,RA_OF_ASC_NODE,ARG_OF_PERICENTER,MEAN_ANOMALY,EPHEMERIS_TYPE,ELEMENT_SET_NO,REV_AT_EPOCH,BSTAR,MEAN_MOTION_DOT,MEAN_MOTION_DDOT,FILE,TLE_LINE0,TLE_LINE1,TLE_LINE2,OBJECT_ID,OBJECT_NUMBER,SEMIMAJOR_AXIS,PERIOD,APOGEE,PERIGEE,DECAYED,date
GENERATED VIA SPACETRACK.ORG API,18 SPCS,48890,SPACEBEE-104,PAYLOAD,U,21059M,2023/2/3 7:40,147296,15.22395268,0.0008104,97.5763,169.0021,21.474,338.6835,0,999,8896,0.00090913,0.00020988,0,3770323,0 SPACEBEE-104,1 48890U 21059M   23034.31956189  .00020988  00000-0  90913-3 0  9992,2 48890  97.5763 169.0021 0008104  21.4740 338.6835 15.22395268 88968,2021-059M,48890,6876.755,94.588,504.193,493.047,0,2023/3/11
GENERATED VIA SPACETRACK.ORG API,18 SPCS,48890,SPACEBEE-104,PAYLOAD,U,21059M,2023/2/4 8:54,825504,15.22445419,0.0008217,97.5772,170.0634,17.7849,342.3673,0,999,8912,0.0010336,0.00023917,0,3771667,0 SPACEBEE-104,1 48890U 21059M   23035.37119011  .00023917  00000-0  10336-2 0  9999,2 48890  97.5772 170.0634 0008217  17.7849 342.3673 15.22445419 89128,2021-059M,48890,6876.604,94.585,504.12,492.819,0,2023/3/12
GENERATED VIA SPACETRACK.ORG API,18 SPCS,48890,SPACEBEE-104,PAYLOAD,U,21059M,2023/2/4 8:54,825504,15.22445419,0.0008217,97.5772,170.0634,17.7849,342.3673,0,999,8912,0.0010336,0.00023917,0,3771952,0 SPACEBEE-104,1 48890U 21059M   23035.37119011  .00023917  00000-0  10336-2 0  9999,2 48890  97.5772 170.0634 0008217  17.7849 342.3673 15.22445419 89128,2021-059M,48890,6876.604,94.585,504.12,492.819,0,2023/3/13
GENERATED VIA SPACETRACK.ORG API,18 SPCS,48890,SPACEBEE-104,PAYLOAD,U,21059M,2023/2/4 21:31,22400,15.22467083,0.0008062,97.5773,170.5931,16.3941,343.7554,0,999,8920,0.00081424,0.00018824,0,3772514,0 SPACEBEE-104,1 48890U 21059M   23035.89699100  .00018824  00000-0  81424-3 0  9996,2 48890  97.5773 170.5931 0008062  16.3941 343.7554 15.22467083 89203,2021-059M,48890,6876.539,94.583,503.948,492.86,0,2023/3/14
GENERATED VIA SPACETRACK.ORG API,18 SPCS,48890,SPACEBEE-104,PAYLOAD,U,21059M,2023/2/5 8:34,42752,15.22486238,0.000798,97.5772,171.057,14.9896,345.1575,0,999,8927,0.0008401,0.00019436,0,3773728,0 SPACEBEE-104,1 48890U 21059M   23036.35706068  .00019436  00000-0  84010-3 0  9994,2 48890  97.5772 171.0570 0007980  14.9896 345.1575 15.22486238 89277,2021-059M,48890,6876.481,94.582,503.834,492.859,0,2023/3/15
GENERATED VIA SPACETRACK.ORG API,18 SPCS,48890,SPACEBEE-104,PAYLOAD,U,21059M,2023/2/5 19:36,537792,15.2250724,0.0007918,97.5772,171.5206,13.365,346.7794,0,999,8934,0.00087349,0.00020226,0,3773885,0 SPACEBEE-104,1 48890U 21059M   23036.81712428  .00020226  00000-0  87349-3 0  9999,2 48890  97.5772 171.5206 0007918  13.3650 346.7794 15.22507240 89345,2021-059M,48890,6876.418,94.581,503.728,492.838,0,2023/3/16
GENERATED VIA SPACETRACK.ORG API,18 SPCS,48890,SPACEBEE-104,PAYLOAD,U,21059M,2023/2/5 21:11,969568,15.22511146,0.0007918,97.5773,171.5869,13.0602,347.0838,0,999,8935,0.00089603,0.00020754,0,3774172,0 SPACEBEE-104,1 48890U 21059M   23036.88284687  .00020754  00000-0  89603-3 0  9998,2 48890  97.5773 171.5869 0007918  13.0602 347.0838 15.22511146 89359,2021-059M,48890,6876.406,94.581,503.716,492.826,0,2023/3/17
GENERATED VIA SPACETRACK.ORG API,18 SPCS,48890,SPACEBEE-104,PAYLOAD,U,21059M,2023/2/6 8:13,809696,15.22535277,0.0007969,97.5773,172.0508,11.0436,349.0974,0,999,8942,0.0011015,0.00025564,0,3775254,0 SPACEBEE-104,1 48890U 21059M   23037.34290289  .00025564  00000-0  11015-2 0  9990,2 48890  97.5773 172.0508 0007969  11.0436 349.0974 15.22535277 89426,2021-059M,48890,6876.334,94.579,503.678,492.719,0,2023/3/18
GENERATED VIA SPACETRACK.ORG API,18 SPCS,48890,SPACEBEE-104,PAYLOAD,U,21059M,2023/2/6 19:16,954304,15.22563253,0.0007922,97.5773,172.5144,9.2397,350.8983,0,999,8949,0.0012467,0.00028981,0,3775507,0 SPACEBEE-104,1 48890U 21059M   23037.80295086  .00028981  00000-0  12467-2 0  9999,2 48890  97.5773 172.5144 0007922   9.2397 350.8983 15.22563253 89493,2021-059M,48890,6876.249,94.577,503.562,492.667,0,2023/3/19
GENERATED VIA SPACETRACK.ORG API,18 SPCS,48890,SPACEBEE-104,PAYLOAD,U,21059M,2023/2/6 20:50,208096,15.22566416,0.0007916,97.5774,172.5807,8.9491,351.1885,0,999,8950,0.0012158,0.0002826,0,3776034,0 SPACEBEE-104,1 48890U 21059M   23037.86867139  .00028260  00000-0  12158-2 0  9996,2 48890  97.5774 172.5807 0007916   8.9491 351.1885 15.22566416 89505,2021-059M,48890,6876.24,94.577,503.548,492.662,0,2023/3/20
GENERATED VIA SPACETRACK.ORG API,18 SPCS,48890,SPACEBEE-104,PAYLOAD,U,21059M,2023/2/7 7:53,498208,15.22598058,0.000796,97.5773,173.0448,7.0538,353.0808,0,999,8957,0.0014239,0.00033163,0,3777208,0 SPACEBEE-104,1 48890U 21059M   23038.32870947  .00033163  00000-0  14239-2 0  9999,2 48890  97.5773 173.0448 0007960   7.0538 353.0808 15.22598058 89572,2021-059M,48890,6876.144,94.575,503.483,492.536,0,2023/3/21
GENERATED VIA SPACETRACK.ORG API,18 SPCS,48890,SPACEBEE-104,PAYLOAD,U,21059M,2023/2/7 20:30,928416,15.22634532,0.0007932,97.5776,173.5748,5.5239,354.6083,0,999,8965,0.0013874,0.00032342,0,3777976,0 SPACEBEE-104,1 48890U 21059M   23038.85445519  .00032342  00000-0  13874-2 0  9992,2 48890  97.5776 173.5748 0007932   5.5239 354.6083 15.22634532 89652,2021-059M,48890,6876.035,94.573,503.354,492.446,0,2023/3/22
GENERATED VIA SPACETRACK.ORG API,18 SPCS,48890,SPACEBEE-104,PAYLOAD,U,21059M,2023/2/7 22:05,885856,15.22640199,0.0007924,97.5777,173.6411,5.4955,354.6367,0,999,8966,0.0014256,0.00033244,0,3778169,0 SPACEBEE-104,1 48890U 21059M   23038.92017229  .00033244  00000-0  14256-2 0  9990,2 48890  97.5777 173.6411 0007924   5.4955 354.6367 15.22640199 89668,2021-059M,48890,6876.018,94.573,503.331,492.434,0,2023/3/23
GENERATED VIA SPACETRACK.ORG API,18 SPCS,48890,SPACEBEE-104,PAYLOAD,U,21059M,2023/2/8 7:32,335872,15.22670074,0.0007957,97.5777,174.0388,4.0679,356.0621,0,999,8972,0.0014967,0.00034945,0,3780324,0 SPACEBEE-104,1 48890U 21059M   23039.31447148  .00034945  00000-0  14967-2 0  9999,2 48890  97.5777 174.0388 0007957   4.0679 356.0621 15.22670074 89721,2021-059M,48890,6875.928,94.571,503.264,492.321,0,2023/3/24
GENERATED VIA SPACETRACK.ORG API,18 SPCS,48890,SPACEBEE-104,PAYLOAD,U,21059M,2023/2/9 2:28,219328,15.22731897,0.000791,97.578,174.8341,1.7259,358.4003,0,999,8984,0.0016702,0.00039096,0,3781359,0 SPACEBEE-104,1 48890U 21059M   23040.10304652  .00039096  00000-0  16702-2 0  9991,2 48890  97.5780 174.8341 0007910   1.7259 358.4003 15.22731897 89843,2021-059M,48890,6875.742,94.567,503.045,492.168,0,2023/3/25
GENERATED VIA SPACETRACK.ORG API,18 SPCS,48890,SPACEBEE-104,PAYLOAD,U,21059M,2023/2/9 8:46,550912,15.22753679,0.0007919,97.5778,175.0991,1.0398,359.0853,0,999,8988,0.001654,0.0003874,0,3782313,0 SPACEBEE-104,1 48890U 21059M   23040.36589758  .00038740  00000-0  16540-2 0  9996,2 48890  97.5778 175.0991 0007919   1.0398 359.0853 15.22753679 89886,2021-059M,48890,6875.676,94.566,502.986,492.096,0,2023/3/26
GENERATED VIA SPACETRACK.ORG API,18 SPCS,48890,SPACEBEE-104,PAYLOAD,U,21059M,2023/2/9 19:49,934368,15.22788368,0.0007899,97.5779,175.5632,359.3807,0.7418,0,999,8995,0.0015867,0.0003719,0,3783241,0 SPACEBEE-104,1 48890U 21059M   23040.82587887  .00037190  00000-0  15867-2 0  9997,2 48890  97.5779 175.5632 0007899 359.3807   0.7418 15.22788368 89953,2021-059M,48890,6875.572,94.563,502.868,492.006,0,2023/3/27
GENERATED VIA SPACETRACK.ORG API,18 SPCS,48890,SPACEBEE-104,PAYLOAD,U,21059M,2023/2/10 2:07,397632,15.22812006,0.0007927,97.5775,175.8279,358.2515,1.8692,0,999,8999,0.0017956,0.00042154,0,3784184,0 SPACEBEE-104,1 48890U 21059M   23041.08871988  .00042154  00000-0  17956-2 0  9991,2 48890  97.5775 175.8279 0007927 358.2515   1.8692 15.22812006 89992,2021-059M,48890,6875.5,94.562,502.816,491.915,0,2023/3/28
GENERATED VIA SPACETRACK.ORG API,18 SPCS,48890,SPACEBEE-104,PAYLOAD,U,21059M,2023/2/10 8:26,535168,15.22837589,0.0007934,97.5774,176.0931,357.3504,2.7689,0,999,9003,0.0019555,0.00045973,0,3784219,0 SPACEBEE-104,1 48890U 21059M   23041.35155712  .00045973  00000-0  19555-2 0  9990,2 48890  97.5774 176.0931 0007934 357.3504   2.7689 15.22837589 90031,2021-059M,48890,6875.423,94.56,502.743,491.833,0,2023/3/29
GENERATED VIA SPACETRACK.ORG API,18 SPCS,48890,SPACEBEE-104,PAYLOAD,U,21059M,2023/2/10 14:44,343520,15.22855674,0.0007911,97.5771,176.3582,356.2347,3.8828,0,999,9007,0.0017379,0.00040842,0,3785071,0 SPACEBEE-104,1 48890U 21059M   23041.61439055  .00040842  00000-0  17379-2 0  9996,2 48890  97.5771 176.3582 0007911 356.2347   3.8828 15.22855674 90077,2021-059M,48890,6875.369,94.559,502.673,491.795,0,2023/3/30
GENERATED VIA SPACETRACK.ORG API,18 SPCS,48890,SPACEBEE-104,PAYLOAD,U,21059M,2023/2/10 22:37,898848,15.2288275,0.0007925,97.5772,176.6895,355.0502,5.0655,0,999,9012,0.0016651,0.00039151,0,3785198,0 SPACEBEE-104,1 48890U 21059M   23041.94292707  .00039151  00000-0  16651-2 0  9996,2 48890  97.5772 176.6895 0007925 355.0502   5.0655 15.22882750 90126,2021-059M,48890,6875.287,94.558,502.601,491.704,0,2023/3/31
GENERATED VIA SPACETRACK.ORG API,18 SPCS,48890,SPACEBEE-104,PAYLOAD,U,21059M,2023/2/11 14:23,405920,15.22941196,0.0007984,97.5772,177.3523,352.3817,7.7297,0,999,9022,0.0018249,0.00043012,0,3786144,0 SPACEBEE-104,1 48890U 21059M   23042.59998155  .00043012  00000-0  18249-2 0  9994,2 48890  97.5772 177.3523 0007984 352.3817   7.7297 15.22941196 90228,2021-059M,48890,6875.112,94.554,502.466,491.488,0,2023/4/1
GENERATED VIA SPACETRACK.ORG API,18 SPCS,48890,SPACEBEE-104,PAYLOAD,U,21059M,2023/2/11 19:07,836928,15.22957544,0.0007976,97.5771,177.5512,351.5434,8.5666,0,999,9025,0.0017217,0.00040582,0,3786577,0 SPACEBEE-104,1 48890U 21059M   23042.79709302  .00040582  00000-0  17217-2 0  9993,2 48890  97.5771 177.5512 0007976 351.5434   8.5666 15.22957544 90250,2021-059M,48890,6875.062,94.553,502.411,491.444,0,2023/4/2
